{
    "links": {
        "self": "http://www.neowsapp.com/rest/v1/neo/3781980?api_key=iIulBulltgU6a56xZRHN4H3l9WmuAYTsLGpBGhQ2"
    },
    "id": "3781980",
    "neo_reference_id": "3781980",
    "name": "(2017 SF20)",
    "designation": "2017 SF20",
    "nasa_jpl_url": "http://ssd.jpl.nasa.gov/sbdb.cgi?sstr=3781980",
    "absolute_magnitude_h": 28.4,
    "estimated_diameter": {
        "kilometers": {
            "estimated_diameter_min": 0.0055533491,
            "estimated_diameter_max": 0.0124176661
        },
        "meters": {
            "estimated_diameter_min": 5.5533491158,
            "estimated_diameter_max": 12.4176661257
        },
        "miles": {
            "estimated_diameter_min": 0.0034506901,
            "estimated_diameter_max": 0.0077159776
        },
        "feet": {
            "estimated_diameter_min": 18.2196499131,
            "estimated_diameter_max": 40.740375732
        }
    },
    "is_potentially_hazardous_asteroid": false,
    "close_approach_data": [
        {
            "close_approach_date": "2017-09-26",
            "close_approach_date_full": "2017-Sep-26 07:43",
            "epoch_date_close_approach": 1506411780000,
            "relative_velocity": {
                "kilometers_per_second": "9.9763952315",
                "kilometers_per_hour": "35915.0228334827",
                "miles_per_hour": "22316.1984933938"
            },
            "miss_distance": {
                "astronomical": "0.0028193361",
                "lunar": "1.0967217429",
                "kilometers": "421766.675374107",
                "miles": "262073.6595603966"
            },
            "orbiting_body": "Moon"
        },
        {
            "close_approach_date": "2017-09-26",
            "close_approach_date_full": "2017-Sep-26 14:46",
            "epoch_date_close_approach": 1506437160000,
            "relative_velocity": {
                "kilometers_per_second": "10.5909754476",
                "kilometers_per_hour": "38127.5116114367",
                "miles_per_hour": "23690.9529787841"
            },
            "miss_distance": {
                "astronomical": "0.004623077",
                "lunar": "1.798376953",
                "kilometers": "691602.47204599",
                "miles": "429741.848735062"
            },
            "orbiting_body": "Earth"
        },
        {
            "close_approach_date": "2022-05-23",
            "close_approach_date_full": "2022-May-23 05:26",
            "epoch_date_close_approach": 1653283560000,
            "relative_velocity": {
                "kilometers_per_second": "24.8172768887",
                "kilometers_per_hour": "89342.1967991576",
                "miles_per_hour": "55513.7666722321"
            },
            "miss_distance": {
                "astronomical": "0.4935664704",
                "lunar": "191.9973569856",
                "kilometers": "73836492.675258048",
                "miles": "45879869.0706071424"
            },
            "orbiting_body": "Earth"
        }
    ],
    "orbital_data": {
        "orbit_id": "5",
        "orbit_determination_date": "2020-08-22 06:31:31",
        "first_observation_date": "2017-09-28",
        "last_observation_date": "2017-10-16",
        "data_arc_in_days": 18,
        "observations_used": 33,
        "orbit_uncertainty": "7",
        "minimum_orbit_intersection": ".000450463",
        "jupiter_tisserand_invariant": "3.905",
        "epoch_osculation": "2459000.5",
        "eccentricity": ".4927770166325176",
        "semi_major_axis": "1.806273939061241",
        "inclination": "3.073340979427456",
        "ascending_node_longitude": "183.1954178983969",
        "orbital_period": "886.6941655598846",
        "perihelion_distance": ".9161836561495768",
        "perihelion_argument": "137.2835718192839",
        "aphelion_distance": "2.696364221972905",
        "perihelion_time": "2458876.578663437110",
        "mean_anomaly": "50.31236574616583",
        "mean_motion": ".4060024459196542",
        "equinox": "J2000",
        "orbit_class": {
            "orbit_class_type": "APO",
            "orbit_class_description": "Near-Earth asteroid orbits which cross the Earth’s orbit similar to that of 1862 Apollo",
            "orbit_class_range": "a (semi-major axis) > 1.0 AU; q (perihelion) < 1.017 AU"
        }
    },
    "is_sentry_object": false
}